[
    {
        "Altitude(m)": 607886.7178293287,
        "Argument of Periapsis(deg)": 0.0,
        "Eccentricity": 0.0,
        "Inclination(deg)": 60.0,
        "Latitude(deg)": 40.998515110357246,
        "Longitude(deg)": 164.97303101404876,
        "Mean Anomaly(deg)": 49.09089999999999,
        "RAAN(deg)": 235.0,
        "Satellite Name": "Test1 1037",
        "Satellite Number": 1037,
        "Semi-Major Axis(m)": 6980739.136638005,
        "Time(s)": 0
    },
    {
        "Altitude(m)": 607987.6317333605,
        "Argument of Periapsis(deg)": 0.00010418945913296404,
        "Eccentricity": 0.0,
        "Inclination(deg)": 60.0,
        "Latitude(deg)": 41.463604652042385,
        "Longitude(deg)": 165.47726028525105,
        "Mean Anomaly(deg)": 49.711006145461845,
        "RAAN(deg)": 234.99957995086027,
        "Satellite Name": "Test1 1037",
        "Satellite Number": 1037,
        "Semi-Major Axis(m)": 6980739.136638005,
        "Time(s)": 10
    }
]